{"fetched_at":"2026-07-16T06:42:35.236Z","source":"https://celestrak.org/NORAD/elements/gp.php?GROUP=planet&FORMAT=JSON","constellation":"superdove","records":[{"OBJECT_NAME":"FLOCK 4BE-17","OBJECT_ID":"2024-149AA","EPOCH":"2026-07-15T19:22:16.915872","CLASSIFICATION_TYPE":"U","MEAN_MOTION":15.40581932,"ECCENTRICITY":0.00044546,"INCLINATION":97.3772,"RA_OF_ASC_NODE":280.4168,"ARG_OF_PERICENTER":144.9752,"MEAN_ANOMALY":215.1788,"EPHEMERIS_TYPE":0,"NORAD_CAT_ID":60492,"ELEMENT_SET_NO":999,"REV_AT_EPOCH":10666,"BSTAR":0.00023613795,"MEAN_MOTION_DOT":0.00009522,"MEAN_MOTION_DDOT":0},{"OBJECT_NAME":"FLOCK 4BE-22","OBJECT_ID":"2024-149AC","EPOCH":"2026-07-15T18:18:20.514816","CLASSIFICATION_TYPE":"U","MEAN_MOTION":15.41997883,"ECCENTRICITY":0.00047327,"INCLINATION":97.3734,"RA_OF_ASC_NODE":280.6098,"ARG_OF_PERICENTER":152.4498,"MEAN_ANOMALY":207.7001,"EPHEMERIS_TYPE":0,"NORAD_CAT_ID":60494,"ELEMENT_SET_NO":999,"REV_AT_EPOCH":10670,"BSTAR":0.00023634128,"MEAN_MOTION_DOT":0.00009991,"MEAN_MOTION_DDOT":0},{"OBJECT_NAME":"FLOCK 4BE-34","OBJECT_ID":"2024-149AD","EPOCH":"2026-07-15T04:42:36.766368","CLASSIFICATION_TYPE":"U","MEAN_MOTION":15.41951345,"ECCENTRICITY":0.00049457,"INCLINATION":97.3783,"RA_OF_ASC_NODE":280.8775,"ARG_OF_PERICENTER":161.2158,"MEAN_ANOMALY":198.9273,"EPHEMERIS_TYPE":0,"NORAD_CAT_ID":60495,"ELEMENT_SET_NO":999,"REV_AT_EPOCH":10664,"BSTAR":0.00023025621,"MEAN_MOTION_DOT":0.00009716,"MEAN_MOTION_DDOT":0},{"OBJECT_NAME":"FLOCK 4BE-32","OBJECT_ID":"2024-149AF","EPOCH":"2026-07-15T19:03:16.762464","CLASSIFICATION_TYPE":"U","MEAN_MOTION":15.43099997,"ECCENTRICITY":0.00049782,"INCLINATION":97.372,"RA_OF_ASC_NODE":281.048,"ARG_OF_PERICENTER":157.0753,"MEAN_ANOMALY":203.0718,"EPHEMERIS_TYPE":0,"NORAD_CAT_ID":60497,"ELEMENT_SET_NO":999,"REV_AT_EPOCH":10674,"BSTAR":0.00027353758,"MEAN_MOTION_DOT":0.00012016,"MEAN_MOTION_DDOT":0},{"OBJECT_NAME":"FLOCK 4BE-11","OBJECT_ID":"2024-149AK","EPOCH":"2026-07-15T18:34:04.125504","CLASSIFICATION_TYPE":"U","MEAN_MOTION":15.43891147,"ECCENTRICITY":0.00049222,"INCLINATION":97.3698,"RA_OF_ASC_NODE":281.285,"ARG_OF_PERICENTER":156.7931,"MEAN_ANOMALY":203.354,"EPHEMERIS_TYPE":0,"NORAD_CAT_ID":60501,"ELEMENT_SET_NO":999,"REV_AT_EPOCH":10676,"BSTAR":0.00026719794,"MEAN_MOTION_DOT":0.00012053,"MEAN_MOTION_DDOT":0},{"OBJECT_NAME":"FLOCK 4BE-24","OBJECT_ID":"2024-149AP","EPOCH":"2026-07-15T18:10:27.790176","CLASSIFICATION_TYPE":"U","MEAN_MOTION":15.44115038,"ECCENTRICITY":0.00050905,"INCLINATION":97.3716,"RA_OF_ASC_NODE":281.5368,"ARG_OF_PERICENTER":168.5344,"MEAN_ANOMALY":191.6021,"EPHEMERIS_TYPE":0,"NORAD_CAT_ID":60505,"ELEMENT_SET_NO":999,"REV_AT_EPOCH":10677,"BSTAR":0.00026779554,"MEAN_MOTION_DOT":0.00012173,"MEAN_MOTION_DDOT":0},{"OBJECT_NAME":"FLOCK 4BE-29","OBJECT_ID":"2024-149AT","EPOCH":"2026-07-15T17:56:42.125856","CLASSIFICATION_TYPE":"U","MEAN_MOTION":15.45510334,"ECCENTRICITY":0.00036518,"INCLINATION":97.3811,"RA_OF_ASC_NODE":283.0723,"ARG_OF_PERICENTER":175.6538,"MEAN_ANOMALY":184.4744,"EPHEMERIS_TYPE":0,"NORAD_CAT_ID":60509,"ELEMENT_SET_NO":999,"REV_AT_EPOCH":10682,"BSTAR":0.00061485328,"MEAN_MOTION_DOT":0.00029483,"MEAN_MOTION_DDOT":0},{"OBJECT_NAME":"FLOCK 4BE-2","OBJECT_ID":"2024-149AV","EPOCH":"2026-07-15T18:31:38.560512","CLASSIFICATION_TYPE":"U","MEAN_MOTION":15.55950565,"ECCENTRICITY":0.00053335,"INCLINATION":97.3832,"RA_OF_ASC_NODE":284.9505,"ARG_OF_PERICENTER":172.0208,"MEAN_ANOMALY":188.1132,"EPHEMERIS_TYPE":0,"NORAD_CAT_ID":60511,"ELEMENT_SET_NO":999,"REV_AT_EPOCH":10694,"BSTAR":0.00066200317,"MEAN_MOTION_DOT":0.00046071,"MEAN_MOTION_DDOT":0},{"OBJECT_NAME":"FLOCK 4BE-13","OBJECT_ID":"2024-149AW","EPOCH":"2026-07-15T18:27:05.891616","CLASSIFICATION_TYPE":"U","MEAN_MOTION":15.42626487,"ECCENTRICITY":0.00051382,"INCLINATION":97.3721,"RA_OF_ASC_NODE":281.491,"ARG_OF_PERICENTER":154.1061,"MEAN_ANOMALY":206.0445,"EPHEMERIS_TYPE":0,"NORAD_CAT_ID":60512,"ELEMENT_SET_NO":999,"REV_AT_EPOCH":10677,"BSTAR":0.00019827934,"MEAN_MOTION_DOT":0.00008546,"MEAN_MOTION_DDOT":0},{"OBJECT_NAME":"FLOCK 4BE-27","OBJECT_ID":"2024-149AX","EPOCH":"2026-07-15T18:04:05.818368","CLASSIFICATION_TYPE":"U","MEAN_MOTION":15.34924575,"ECCENTRICITY":0.00040918,"INCLINATION":97.3827,"RA_OF_ASC_NODE":278.6254,"ARG_OF_PERICENTER":180.4022,"MEAN_ANOMALY":179.7219,"EPHEMERIS_TYPE":0,"NORAD_CAT_ID":60513,"ELEMENT_SET_NO":999,"REV_AT_EPOCH":10652,"BSTAR":0.00017429443,"MEAN_MOTION_DOT":0.00005823,"MEAN_MOTION_DDOT":0},{"OBJECT_NAME":"FLOCK 4BE-9","OBJECT_ID":"2024-149AY","EPOCH":"2026-07-15T18:53:54.580992","CLASSIFICATION_TYPE":"U","MEAN_MOTION":15.41617186,"ECCENTRICITY":0.00037514,"INCLINATION":97.3792,"RA_OF_ASC_NODE":281.3519,"ARG_OF_PERICENTER":168.9855,"MEAN_ANOMALY":191.1475,"EPHEMERIS_TYPE":0,"NORAD_CAT_ID":60514,"ELEMENT_SET_NO":999,"REV_AT_EPOCH":10672,"BSTAR":0.00030026068,"MEAN_MOTION_DOT":0.00012558,"MEAN_MOTION_DDOT":0},{"OBJECT_NAME":"FLOCK 4BE-6","OBJECT_ID":"2024-149BA","EPOCH":"2026-07-15T18:35:13.247232","CLASSIFICATION_TYPE":"U","MEAN_MOTION":15.40327147,"ECCENTRICITY":0.00044186,"INCLINATION":97.3789,"RA_OF_ASC_NODE":280.6416,"ARG_OF_PERICENTER":171.2292,"MEAN_ANOMALY":188.9032,"EPHEMERIS_TYPE":0,"NORAD_CAT_ID":60516,"ELEMENT_SET_NO":999,"REV_AT_EPOCH":10667,"BSTAR":0.00023214987,"MEAN_MOTION_DOT":0.00009281,"MEAN_MOTION_DDOT":0},{"OBJECT_NAME":"FLOCK 4BE-14","OBJECT_ID":"2024-149BB","EPOCH":"2026-07-15T19:05:48.638112","CLASSIFICATION_TYPE":"U","MEAN_MOTION":15.41868142,"ECCENTRICITY":0.00054532,"INCLINATION":97.3694,"RA_OF_ASC_NODE":280.827,"ARG_OF_PERICENTER":174.816,"MEAN_ANOMALY":185.3145,"EPHEMERIS_TYPE":0,"NORAD_CAT_ID":60517,"ELEMENT_SET_NO":999,"REV_AT_EPOCH":10673,"BSTAR":0.00026771017,"MEAN_MOTION_DOT":0.00011283,"MEAN_MOTION_DDOT":0},{"OBJECT_NAME":"FLOCK 4BE-1","OBJECT_ID":"2024-149BC","EPOCH":"2026-07-15T18:45:15.035328","CLASSIFICATION_TYPE":"U","MEAN_MOTION":15.43525871,"ECCENTRICITY":0.0005016,"INCLINATION":97.378,"RA_OF_ASC_NODE":282.1939,"ARG_OF_PERICENTER":174.3404,"MEAN_ANOMALY":185.7902,"EPHEMERIS_TYPE":0,"NORAD_CAT_ID":60518,"ELEMENT_SET_NO":999,"REV_AT_EPOCH":10678,"BSTAR":0.00027803054,"MEAN_MOTION_DOT":0.00012392,"MEAN_MOTION_DDOT":0},{"OBJECT_NAME":"FLOCK 4BE-28","OBJECT_ID":"2024-149BD","EPOCH":"2026-07-15T19:34:16.244256","CLASSIFICATION_TYPE":"U","MEAN_MOTION":15.46326227,"ECCENTRICITY":0.00052587,"INCLINATION":97.3749,"RA_OF_ASC_NODE":283.0464,"ARG_OF_PERICENTER":173.7319,"MEAN_ANOMALY":186.3997,"EPHEMERIS_TYPE":0,"NORAD_CAT_ID":60519,"ELEMENT_SET_NO":999,"REV_AT_EPOCH":10686,"BSTAR":0.00055422511,"MEAN_MOTION_DOT":0.00027319,"MEAN_MOTION_DDOT":0},{"OBJECT_NAME":"FLOCK 4BE-5","OBJECT_ID":"2024-149CV","EPOCH":"2026-07-15T17:37:40.139904","CLASSIFICATION_TYPE":"U","MEAN_MOTION":15.4105401,"ECCENTRICITY":0.00040979,"INCLINATION":97.3842,"RA_OF_ASC_NODE":281.024,"ARG_OF_PERICENTER":169.5819,"MEAN_ANOMALY":190.5513,"EPHEMERIS_TYPE":0,"NORAD_CAT_ID":60559,"ELEMENT_SET_NO":999,"REV_AT_EPOCH":10667,"BSTAR":0.0002454766,"MEAN_MOTION_DOT":0.00010058,"MEAN_MOTION_DDOT":0}]}
